NORAD_CAT_ID,OBJECT_NAME,OBJECT_TYPE,EPOCH,MEAN_MOTION,ECCENTRICITY,INCLINATION,RA_OF_ASC_NODE,ARG_OF_PERICENTER,MEAN_ANOMALY,BSTAR,MEAN_MOTION_DOT,MEAN_MOTION_DDOT,TLE_LINE0,TLE_LINE1,TLE_LINE2,SEMIMAJOR_AXIS,PERIOD,APOGEE,PERIGEE,DECAYED
53868.0,STARLINK-4789,PAYLOAD,2023-12-19 04:21:07,15.08830837,0.0001423,53.2182,307.0353,105.7335,254.3815,-0.000141,-2.531e-05,0.0,0 STARLINK-4789,1 53868U 22114BC  23353.18134233 -.00002531  00000-0 -14100-3 0  9993,2 53868  53.2182 307.0353 0001423 105.7335 254.3815 15.08830837 70343,6917.908,95.438,540.758,538.789,0.0
53868.0,STARLINK-4789,PAYLOAD,2023-12-20 04:11:54,15.08850476,0.0001265,53.2173,302.5741,86.1174,273.9963,0.00047867,7.34e-05,0.0,0 STARLINK-4789,1 53868U 22114BC  23354.17494029  .00007340  00000-0  47867-3 0  9992,2 53868  53.2173 302.5741 0001265  86.1174 273.9963 15.08850476 70499,6917.848,95.437,540.588,538.838,0.0
53868.0,STARLINK-4789,PAYLOAD,2023-12-21 04:02:43,15.08835418,0.0001439,53.2168,298.1153,97.8454,262.2702,0.00056021,8.638e-05,0.0,0 STARLINK-4789,1 53868U 22114BC  23355.16855485  .00008638  00000-0  56021-3 0  9992,2 53868  53.2168 298.1153 0001439  97.8454 262.2702 15.08835418 70641,6917.894,95.438,540.755,538.764,0.0
53868.0,STARLINK-4789,PAYLOAD,2023-12-22 03:53:30,15.08861492,0.0001615,53.2175,293.6534,88.1758,271.9419,0.001074,0.00016856,0.0,0 STARLINK-4789,1 53868U 22114BC  23356.16215336  .00016856  00000-0  10740-2 0  9996,2 53868  53.2175 293.6534 0001615  88.1758 271.9419 15.08861492 71338,6917.815,95.436,540.797,538.562,0.0
53868.0,STARLINK-4789,PAYLOAD,2023-12-23 02:08:53,15.08862494,0.0001623,53.2175,289.494,97.3256,262.7921,0.00081546,0.00012722,0.0,0 STARLINK-4789,1 53868U 22114BC  23357.08950996  .00012722  00000-0  81546-3 0  9997,2 53868  53.2175 289.4940 0001623  97.3256 262.7921 15.08862494 70930,6917.812,95.436,540.799,538.554,0.0
53868.0,STARLINK-4789,PAYLOAD,2023-12-23 05:19:39,15.0886421,0.0001604,53.2181,288.8923,96.339,263.7785,0.00087223,0.0001363,0.0,0 STARLINK-4789,1 53868U 22114BC  23357.22198762  .00013630  00000-0  87223-3 0  9995,2 53868  53.2181 288.8923 0001604  96.3390 263.7785 15.08864210 71497,6917.806,95.436,540.781,538.562,0.0
53868.0,STARLINK-4789,PAYLOAD,2023-12-23 19:38:08,15.08840007,0.0001474,53.2193,286.2151,103.717,256.3986,0.0004147,6.318e-05,0.0,0 STARLINK-4789,1 53868U 22114BC  23357.81814947  .00006318  00000-0  41470-3 0  9999,2 53868  53.2193 286.2151 0001474 103.7170 256.3986 15.08840007 71049,6917.88,95.438,540.765,538.726,0.0
53868.0,STARLINK-4789,PAYLOAD,2023-12-24 05:10:26,15.08857323,0.0001605,53.2178,284.4321,100.121,259.9964,0.0013315,0.00020976,0.0,0 STARLINK-4789,1 53868U 22114BC  23358.21558792  .00020976  00000-0  13315-2 0  9999,2 53868  53.2178 284.4321 0001605 100.1210 259.9964 15.08857323 71104,6917.827,95.436,540.803,538.582,0.0
53868.0,STARLINK-4789,PAYLOAD,2023-12-24 22:39:41,15.08849361,0.000176,53.2174,281.1541,120.2276,239.8891,0.00067359,0.00010451,0.0,0 STARLINK-4789,1 53868U 22114BC  23358.94422708  .00010451  00000-0  67359-3 0  9991,2 53868  53.2174 281.1541 0001760 120.2276 239.8891 15.08849361 71755,6917.852,95.437,540.934,538.499,0.0
53868.0,STARLINK-4789,PAYLOAD,2023-12-25 01:50:27,15.0885383,0.0001445,53.2178,280.5586,102.5971,257.5183,0.00071207,0.00011067,0.0,0 STARLINK-4789,1 53868U 22114BC  23359.07670675  .00011067  00000-0  71207-3 0  9995,2 53868  53.2178 280.5586 0001445 102.5971 257.5183 15.08853830 71236,6917.838,95.437,540.703,538.703,0.0
53868.0,STARLINK-4789,PAYLOAD,2023-12-25 05:01:13,15.0885752,0.000148,53.2179,279.9688,105.2135,254.902,0.00082868,0.00012931,0.0,0 STARLINK-4789,1 53868U 22114BC  23359.20918536  .00012931  00000-0  82868-3 0  9997,2 53868  53.2179 279.9688 0001480 105.2135 254.9020 15.08857520 71795,6917.827,95.436,540.716,538.668,0.0
53868.0,STARLINK-4789,PAYLOAD,2023-12-25 19:19:42,15.08843676,0.0001433,53.2175,277.2868,102.8634,257.2518,0.00050846,7.814e-05,0.0,0 STARLINK-4789,1 53868U 22114BC  23359.80534859  .00007814  00000-0  50846-3 0  9990,2 53868  53.2175 277.2868 0001433 102.8634 257.2518 15.08843676 71343,6917.869,95.437,540.725,538.743,0.0
53868.0,STARLINK-4789,PAYLOAD,2023-12-25 22:30:28,15.08842478,0.0001641,53.2172,276.6933,118.3213,241.7945,0.00020734,3.014e-05,0.0,0 STARLINK-4789,1 53868U 22114BC  23359.93782784  .00003014  00000-0  20734-3 0  9997,2 53868  53.2172 276.6933 0001641 118.3213 241.7945 15.08842478 71905,6917.873,95.437,540.873,538.603,0.0
53868.0,STARLINK-4789,PAYLOAD,2023-12-26 04:52:00,15.08844099,0.0001375,53.2171,275.51,90.5893,269.5257,0.00020224,2.933e-05,0.0,0 STARLINK-4789,1 53868U 22114BC  23360.20278749  .00002933  00000-0  20224-3 0  9993,2 53868  53.2171 275.5100 0001375  90.5893 269.5257 15.08844099 71946,6917.868,95.437,540.684,538.782,0.0
53868.0,STARLINK-4789,PAYLOAD,2023-12-26 22:21:15,15.08836424,0.0001346,53.217,272.2379,92.9853,267.1293,0.00014368,1.999e-05,0.0,0 STARLINK-4789,1 53868U 22114BC  23360.93143119  .00001999  00000-0  14368-3 0  9998,2 53868  53.2170 272.2379 0001346  92.9853 267.1293 15.08836424 72057,6917.891,95.438,540.687,538.825,0.0
53868.0,STARLINK-4789,PAYLOAD,2023-12-26 23:56:38,15.08840775,0.0001417,53.2172,271.9397,90.9447,269.1707,0.00012736,1.74e-05,0.0,0 STARLINK-4789,1 53868U 22114BC  23360.99766963  .00001740  00000-0  12736-3 0  9993,2 53868  53.2172 271.9397 0001417  90.9447 269.1707 15.08840775 71528,6917.878,95.438,540.723,538.763,0.0
53868.0,STARLINK-4789,PAYLOAD,2023-12-27 22:12:02,15.08840772,0.0001329,53.2165,267.7765,80.6719,279.4423,0.00013354,1.838e-05,0.0,0 STARLINK-4789,1 53868U 22114BC  23361.92503223  .00001838  00000-0  13354-3 0  9990,2 53868  53.2165 267.7765 0001329  80.6719 279.4423 15.08840772 72204,6917.878,95.438,540.662,538.824,0.0
53868.0,STARLINK-4789,PAYLOAD,2023-12-28 02:58:11,15.08845851,0.0001557,53.217,266.8902,109.3944,250.7216,-1.3165e-05,-4.98e-06,0.0,0 STARLINK-4789,1 53868U 22114BC  23362.12374850 -.00000498  00000-0 -13165-4 0  9999,2 53868  53.2170 266.8902 0001557 109.3944 250.7216 15.08845851 71692,6917.863,95.437,540.805,538.65,0.0
53868.0,STARLINK-4789,PAYLOAD,2023-12-29 02:48:58,15.08847142,0.0001738,53.2173,262.4242,123.7571,236.3587,8.4301e-05,1.054e-05,0.0,0 STARLINK-4789,1 53868U 22114BC  23363.11734894  .00001054  00000-0  84301-4 0  9994,2 53868  53.2173 262.4242 0001738 123.7571 236.3587 15.08847142 72384,6917.859,95.437,540.926,538.521,0.0
53868.0,STARLINK-4789,PAYLOAD,2023-12-29 21:53:37,15.08838719,0.0001369,53.2174,258.86,102.6126,257.5019,4.9254e-05,4.96e-06,0.0,0 STARLINK-4789,1 53868U 22114BC  23363.91223496  .00000496  00000-0  49254-4 0  9990,2 53868  53.2174 258.8600 0001369 102.6126 257.5019 15.08838719 72503,6917.884,95.438,540.696,538.802,0.0
53868.0,STARLINK-4789,PAYLOAD,2023-12-29 23:29:00,15.08840939,0.0001549,53.217,258.5629,100.4673,259.6493,7.9619e-05,9.79e-06,0.0,0 STARLINK-4789,1 53868U 22114BC  23363.97847442  .00000979  00000-0  79619-4 0  9993,2 53868  53.2170 258.5629 0001549 100.4673 259.6493 15.08840939 71976,6917.878,95.437,540.814,538.671,0.0
53868.0,STARLINK-4789,PAYLOAD,2023-12-30 21:44:24,15.08836937,0.0001833,53.2165,254.3961,129.9087,230.2067,0.0003827,5.807e-05,0.0,0 STARLINK-4789,1 53868U 22114BC  23364.90583527  .00005807  00000-0  38270-3 0  9990,2 53868  53.2165 254.3961 0001833 129.9087 230.2067 15.08836937 72655,6917.89,95.438,541.023,538.487,0.0
53868.0,STARLINK-4789,PAYLOAD,2023-12-31 02:30:33,15.08847105,0.0001443,53.216,253.5066,103.0809,257.0345,0.00014123,1.961e-05,0.0,0 STARLINK-4789,1 53868U 22114BC  23365.10455202  .00001961  00000-0  14123-3 0  9999,2 53868  53.2160 253.5066 0001443 103.0809 257.0345 15.08847105 72148,6917.859,95.437,540.722,538.725,0.0
53868.0,STARLINK-4789,PAYLOAD,2023-12-31 21:35:11,15.08837854,0.0001488,53.2159,249.9369,102.3122,257.8037,5.773e-05,6.31e-06,0.0,0 STARLINK-4789,1 53868U 22114BC  23365.89943760  .00000631  00000-0  57730-4 0  9991,2 53868  53.2159 249.9369 0001488 102.3122 257.8037 15.08837854 72269,6917.887,95.438,540.781,538.723,0.0
53868.0,STARLINK-4789,PAYLOAD,2024-01-01 21:25:57,15.088472,0.0001432,53.2168,245.4765,102.1095,258.0058,0.00012218,1.657e-05,0.0,0 STARLINK-4789,1 53868U 22114BC  24001.89303091  .00001657  00000-0  12218-3 0  9996,2 53868  53.2168 245.4765 0001432 102.1095 258.0058 15.08847200 72954,6917.858,95.437,540.714,538.733,0.0
53868.0,STARLINK-4789,PAYLOAD,2024-01-02 02:12:07,15.08848693,0.0001433,53.2167,244.5848,100.6238,259.4915,0.00012747,1.742e-05,0.0,0 STARLINK-4789,1 53868U 22114BC  24002.09174909  .00001742  00000-0  12747-3 0  9995,2 53868  53.2167 244.5848 0001433 100.6238 259.4915 15.08848693 72446,6917.854,95.437,540.71,538.727,0.0
53868.0,STARLINK-4789,PAYLOAD,2024-01-02 19:41:22,15.08839538,0.0001448,53.2166,241.3134,103.6745,256.4408,8.8422e-05,1.12e-05,0.0,0 STARLINK-4789,1 53868U 22114BC  24002.82039555  .00001120  00000-0  88422-4 0  9997,2 53868  53.2166 241.3134 0001448 103.6745 256.4408 15.08839538 72554,6917.882,95.438,540.749,538.745,0.0
53868.0,STARLINK-4789,PAYLOAD,2024-01-02 21:16:45,15.0883901,0.0001438,53.2167,241.0161,103.4391,256.6761,7.6168e-05,9.24e-06,0.0,0 STARLINK-4789,1 53868U 22114BC  24002.88663561  .00000924  00000-0  76168-4 0  9998,2 53868  53.2167 241.0161 0001438 103.4391 256.6761 15.08839010 73107,6917.883,95.438,540.743,538.754,0.0
53868.0,STARLINK-4789,PAYLOAD,2024-01-03 02:02:54,15.0883907,0.0001414,53.2166,240.1244,100.8287,259.2864,6.4264e-05,7.35e-06,0.0,0 STARLINK-4789,1 53868U 22114BC  24003.08535560  .00000735  00000-0  64264-4 0  9992,2 53868  53.2166 240.1244 0001414 100.8287 259.2864 15.08839070 73139,6917.883,95.438,540.726,538.77,0.0
53868.0,STARLINK-4789,PAYLOAD,2024-01-03 22:42:55,15.08838409,0.0001727,53.2168,236.2578,108.9339,251.1841,-1.4988e-05,-5.27e-06,0.0,0 STARLINK-4789,1 53868U 22114BC  24003.94647863 -.00000527  00000-0 -14988-4 0  9996,2 53868  53.2168 236.2578 0001727 108.9339 251.1841 15.08838409 73266,6917.885,95.438,540.945,538.556,0.0
